MALLIGYONG-1            
1 58400U 23179A   24031.17640841  .00006600  00000+0  28967-3 0  9996
2 58400  97.4229 280.0323 0016852  35.7730 324.4632 15.22155440 10731
